start=new Date('2022-05-11T00:00:00.000Z').valueOf();
sats=[{"SITE":"AFETR","COUNTRY_CODE":"US","TLE_LINE2":"2 47590  53.0556 202.9154 0001746  53.3108 306.8041 15.06404360 69626","TIME_SYSTEM":"UTC","RCS_SIZE":"LARGE","MEAN_MOTION_DDOT":"0.0000000000000","PERIAPSIS":"545.991","ELEMENT_SET_NO":"999","APOAPSIS":"548.409","MEAN_ANOMALY":"306.8041","DECAY_DATE":null,"PERIOD":"95.592","NORAD_CAT_ID":"47590","TLE_LINE1":"1 47590U 21009AU  22130.48230137  .00001049  00000-0  89286-4 0  9994","SEMIMAJOR_AXIS":"6925.335","CENTER_NAME":"EARTH","MEAN_ELEMENT_THEORY":"SGP4","OBJECT_TYPE":"PAYLOAD","OBJECT_ID":"2021-009AU","CLASSIFICATION_TYPE":"U","MEAN_MOTION_DOT":"0.00001049","REF_FRAME":"TEME","GP_ID":"203191129","FILE":"3439131","MEAN_MOTION":"15.06404360","EPOCH":"2022-05-10T11:34:30.838368","ARG_OF_PERICENTER":"53.3108","BSTAR":"0.00008928600000","ECCENTRICITY":"0.00017460","RA_OF_ASC_NODE":"202.9154","LAUNCH_DATE":"2021-02-04","OBJECT_NAME":"STARLINK-1995","EPHEMERIS_TYPE":"0","REV_AT_EPOCH":"6962","INCLINATION":"53.0556"},{"PERIAPSIS":"545.903","MEAN_MOTION_DDOT":"0.0000000000000","RCS_SIZE":"LARGE","TLE_LINE2":"2 47591  53.0553 183.1897 0001880  45.0475 315.0667 15.06402849 69897","TIME_SYSTEM":"UTC","COUNTRY_CODE":"US","SITE":"AFETR","TLE_LINE1":"1 47591U 21009AV  22130.42148091  .00001555  00000-0  12324-3 0  9996","SEMIMAJOR_AXIS":"6925.340","PERIOD":"95.592","NORAD_CAT_ID":"47591","DECAY_DATE":null,"MEAN_ANOMALY":"315.0667","APOAPSIS":"548.507","ELEMENT_SET_NO":"999","ARG_OF_PERICENTER":"45.0475","MEAN_MOTION":"15.06402849","EPOCH":"2022-05-10T10:06:55.950624","FILE":"3439131","GP_ID":"203189877","REF_FRAME":"TEME","MEAN_MOTION_DOT":"0.00001555","CLASSIFICATION_TYPE":"U","OBJECT_TYPE":"PAYLOAD","MEAN_ELEMENT_THEORY":"SGP4","OBJECT_ID":"2021-009AV","CENTER_NAME":"EARTH","INCLINATION":"53.0553","REV_AT_EPOCH":"6989","EPHEMERIS_TYPE":"0","LAUNCH_DATE":"2021-02-04","OBJECT_NAME":"STARLINK-1996","RA_OF_ASC_NODE":"183.1897","ECCENTRICITY":"0.00018800","BSTAR":"0.00012324000000"},{"PERIOD":"95.592","NORAD_CAT_ID":"47592","TLE_LINE1":"1 47592U 21009AW  22130.45282070  .00002563  00000-0  19088-3 0  9990","SEMIMAJOR_AXIS":"6925.351","DECAY_DATE":null,"MEAN_ANOMALY":"298.6171","APOAPSIS":"548.348","ELEMENT_SET_NO":"999","PERIAPSIS":"546.084","MEAN_MOTION_DDOT":"0.0000000000000","RCS_SIZE":"LARGE","TIME_SYSTEM":"UTC","TLE_LINE2":"2 47592  53.0543 203.0459 0001634  61.4983 298.6171 15.06399196 69612","SITE":"AFETR","COUNTRY_CODE":"US","INCLINATION":"53.0543","EPHEMERIS_TYPE":"0","REV_AT_EPOCH":"6961","RA_OF_ASC_NODE":"203.0459","LAUNCH_DATE":"2021-02-04","OBJECT_NAME":"STARLINK-1997","ECCENTRICITY":"0.00016340","BSTAR":"0.00019088000000","ARG_OF_PERICENTER":"61.4983","FILE":"3439131","MEAN_MOTION":"15.06399196","EPOCH":"2022-05-10T10:52:03.708480","REF_FRAME":"TEME","GP_ID":"203190127","MEAN_MOTION_DOT":"0.00002563","OBJECT_ID":"2021-009AW","OBJECT_TYPE":"PAYLOAD","MEAN_ELEMENT_THEORY":"SGP4","CLASSIFICATION_TYPE":"U","CENTER_NAME":"EARTH"},{"PERIAPSIS":"545.859","MEAN_MOTION_DDOT":"0.0000000000000","RCS_SIZE":"LARGE","TIME_SYSTEM":"UTC","TLE_LINE2":"2 47593  53.0547 202.8639 0002002  41.8067 318.3074 15.06389563 70227","SITE":"AFETR","COUNTRY_CODE":"US","DECAY_DATE":null,"NORAD_CAT_ID":"47593","PERIOD":"95.593","TLE_LINE1":"1 47593U 21009AX  22130.48968547 -.00000918  00000-0 -42761-4 0  9993","SEMIMAJOR_AXIS":"6925.381","MEAN_ANOMALY":"318.3074","ELEMENT_SET_NO":"999","APOAPSIS":"548.632","ARG_OF_PERICENTER":"41.8067","REF_FRAME":"TEME","GP_ID":"203164387","FILE":"3438872","MEAN_MOTION":"15.06389563","EPOCH":"2022-05-10T11:45:08.824608","OBJECT_TYPE":"PAYLOAD","MEAN_ELEMENT_THEORY":"SGP4","OBJECT_ID":"2021-009AX","CLASSIFICATION_TYPE":"U","MEAN_MOTION_DOT":"-0.00000918","CENTER_NAME":"EARTH","INCLINATION":"53.0547","LAUNCH_DATE":"2021-02-04","OBJECT_NAME":"STARLINK-1998","RA_OF_ASC_NODE":"202.8639","EPHEMERIS_TYPE":"0","REV_AT_EPOCH":"7022","ECCENTRICITY":"0.00020020","BSTAR":"-0.00004276100000"},{"INCLINATION":"53.0543","LAUNCH_DATE":"2021-02-04","RA_OF_ASC_NODE":"202.7346","OBJECT_NAME":"STARLINK-1999","EPHEMERIS_TYPE":"0","REV_AT_EPOCH":"6962","ECCENTRICITY":"0.00020430","BSTAR":"0.00022958000000","ARG_OF_PERICENTER":"46.5696","REF_FRAME":"TEME","GP_ID":"203190630","FILE":"3439131","MEAN_MOTION":"15.06408720","EPOCH":"2022-05-10T12:32:55.722624","OBJECT_TYPE":"PAYLOAD","OBJECT_ID":"2021-009AY","MEAN_ELEMENT_THEORY":"SGP4","CLASSIFICATION_TYPE":"U","MEAN_MOTION_DOT":"0.00003140","CENTER_NAME":"EARTH","DECAY_DATE":null,"PERIOD":"95.592","NORAD_CAT_ID":"47594","TLE_LINE1":"1 47594U 21009AY  22130.52286716  .00003140  00000-0  22958-3 0  9993","SEMIMAJOR_AXIS":"6925.322","MEAN_ANOMALY":"313.5463","APOAPSIS":"548.602","ELEMENT_SET_NO":"999","MEAN_MOTION_DDOT":"0.0000000000000","PERIAPSIS":"545.772","RCS_SIZE":"LARGE","TIME_SYSTEM":"UTC","TLE_LINE2":"2 47594  53.0543 202.7346 0002043  46.5696 313.5463 15.06408720 69621","SITE":"AFETR","COUNTRY_CODE":"US"},{"ECCENTRICITY":"0.00014880","BSTAR":"0.00002478500000","INCLINATION":"53.0531","EPHEMERIS_TYPE":"0","REV_AT_EPOCH":"6968","RA_OF_ASC_NODE":"201.0081","LAUNCH_DATE":"2021-02-04","OBJECT_NAME":"STARLINK-2000","MEAN_MOTION_DOT":"0.00000088","MEAN_ELEMENT_THEORY":"SGP4","OBJECT_TYPE":"PAYLOAD","OBJECT_ID":"2021-009AZ","CLASSIFICATION_TYPE":"U","CENTER_NAME":"EARTH","ARG_OF_PERICENTER":"52.8708","FILE":"3439673","EPOCH":"2022-05-10T21:44:55.652352","MEAN_MOTION":"15.06401238","REF_FRAME":"TEME","GP_ID":"203227561","MEAN_ANOMALY":"307.2416","APOAPSIS":"548.240","ELEMENT_SET_NO":"999","NORAD_CAT_ID":"47595","PERIOD":"95.592","TLE_LINE1":"1 47595U 21009AZ  22130.90619968  .00000088  00000-0  24785-4 0  9994","SEMIMAJOR_AXIS":"6925.345","DECAY_DATE":null,"TIME_SYSTEM":"UTC","TLE_LINE2":"2 47595  53.0531 201.0081 0001488  52.8708 307.2416 15.06401238 69684","SITE":"AFETR","COUNTRY_CODE":"US","PERIAPSIS":"546.179","MEAN_MOTION_DDOT":"0.0000000000000","RCS_SIZE":"LARGE"},{"MEAN_MOTION_DOT":"0.00000952","OBJECT_TYPE":"PAYLOAD","MEAN_ELEMENT_THEORY":"SGP4","OBJECT_ID":"2021-009BA","CLASSIFICATION_TYPE":"U","CENTER_NAME":"EARTH","ARG_OF_PERICENTER":"43.8746","FILE":"3439478","MEAN_MOTION":"15.06403927","EPOCH":"2022-05-10T21:50:12.711840","REF_FRAME":"TEME","GP_ID":"203200728","ECCENTRICITY":"0.00018990","BSTAR":"0.00008277700000","INCLINATION":"53.0530","EPHEMERIS_TYPE":"0","REV_AT_EPOCH":"7028","LAUNCH_DATE":"2021-02-04","RA_OF_ASC_NODE":"200.9871","OBJECT_NAME":"STARLINK-2001","TLE_LINE2":"2 47596  53.0530 200.9871 0001899  43.8746 316.2394 15.06403927 70287","TIME_SYSTEM":"UTC","SITE":"AFETR","COUNTRY_CODE":"US","PERIAPSIS":"545.886","MEAN_MOTION_DDOT":"0.0000000000000","RCS_SIZE":"LARGE","MEAN_ANOMALY":"316.2394","ELEMENT_SET_NO":"999","APOAPSIS":"548.517","PERIOD":"95.592","NORAD_CAT_ID":"47596","TLE_LINE1":"1 47596U 21009BA  22130.90986935  .00000952  00000-0  82777-4 0  9991","SEMIMAJOR_AXIS":"6925.337","DECAY_DATE":null},{"MEAN_ANOMALY":"309.8983","ELEMENT_SET_NO":"999","APOAPSIS":"548.660","DECAY_DATE":null,"SEMIMAJOR_AXIS":"6925.332","TLE_LINE1":"1 47597U 21009BB  22130.90251261  .00003223  00000-0  23513-3 0  9995","PERIOD":"95.592","NORAD_CAT_ID":"47597","TLE_LINE2":"2 47597  53.0530 201.0228 0002113  50.2192 309.8983 15.06405410 69686","TIME_SYSTEM":"UTC","COUNTRY_CODE":"US","SITE":"AFETR","MEAN_MOTION_DDOT":"0.0000000000000","PERIAPSIS":"545.734","RCS_SIZE":"LARGE","ECCENTRICITY":"0.00021130","BSTAR":"0.00023513000000","INCLINATION":"53.0530","RA_OF_ASC_NODE":"201.0228","LAUNCH_DATE":"2021-02-04","OBJECT_NAME":"STARLINK-2002","REV_AT_EPOCH":"6968","EPHEMERIS_TYPE":"0","CLASSIFICATION_TYPE":"U","OBJECT_TYPE":"PAYLOAD","OBJECT_ID":"2021-009BB","MEAN_ELEMENT_THEORY":"SGP4","MEAN_MOTION_DOT":"0.00003223","CENTER_NAME":"EARTH","ARG_OF_PERICENTER":"50.2192","GP_ID":"203226560","REF_FRAME":"TEME","EPOCH":"2022-05-10T21:39:37.089504","MEAN_MOTION":"15.06405410","FILE":"3439673"},{"LAUNCH_DATE":"2021-02-04","OBJECT_NAME":"STARLINK-2003","RA_OF_ASC_NODE":"171.2789","REV_AT_EPOCH":"7010","EPHEMERIS_TYPE":"0","INCLINATION":"53.0533","BSTAR":"0.00002052900000","ECCENTRICITY":"0.00017270","GP_ID":"203227312","REF_FRAME":"TEME","EPOCH":"2022-05-10T20:18:39.876768","MEAN_MOTION":"15.06402532","FILE":"3439673","ARG_OF_PERICENTER":"47.5730","CENTER_NAME":"EARTH","CLASSIFICATION_TYPE":"U","OBJECT_ID":"2021-009BC","OBJECT_TYPE":"PAYLOAD","MEAN_ELEMENT_THEORY":"SGP4","MEAN_MOTION_DOT":"0.00000024","DECAY_DATE":null,"TLE_LINE1":"1 47598U 21009BC  22130.84629487  .00000024  00000-0  20529-4 0  9999","SEMIMAJOR_AXIS":"6925.341","PERIOD":"95.592","NORAD_CAT_ID":"47598","APOAPSIS":"548.402","ELEMENT_SET_NO":"999","MEAN_ANOMALY":"312.5405","RCS_SIZE":"LARGE","PERIAPSIS":"546.010","MEAN_MOTION_DDOT":"0.0000000000000","COUNTRY_CODE":"US","SITE":"AFETR","TIME_SYSTEM":"UTC","TLE_LINE2":"2 47598  53.0533 171.2789 0001727  47.5730 312.5405 15.06402532 70108"},{"MEAN_MOTION_DDOT":"0.0000000000000","PERIAPSIS":"545.906","RCS_SIZE":"LARGE","TLE_LINE2":"2 47599  53.0543 162.8117 0001895  47.7017 312.4132 15.06398489 70186","TIME_SYSTEM":"UTC","COUNTRY_CODE":"US","SITE":"AFETR","DECAY_DATE":null,"TLE_LINE1":"1 47599U 21009BD  22130.50442603 -.00000002  00000-0  18769-4 0  9996","SEMIMAJOR_AXIS":"6925.353","PERIOD":"95.592","NORAD_CAT_ID":"47599","MEAN_ANOMALY":"312.4132","APOAPSIS":"548.531","ELEMENT_SET_NO":"999","ARG_OF_PERICENTER":"47.7017","GP_ID":"203189878","REF_FRAME":"TEME","EPOCH":"2022-05-10T12:06:22.408992","MEAN_MOTION":"15.06398489","FILE":"3439131","CLASSIFICATION_TYPE":"U","OBJECT_ID":"2021-009BD","OBJECT_TYPE":"PAYLOAD","MEAN_ELEMENT_THEORY":"SGP4","MEAN_MOTION_DOT":"-0.00000002","CENTER_NAME":"EARTH","INCLINATION":"53.0543","OBJECT_NAME":"STARLINK-2004","LAUNCH_DATE":"2021-02-04","RA_OF_ASC_NODE":"162.8117","REV_AT_EPOCH":"7018","EPHEMERIS_TYPE":"0","ECCENTRICITY":"0.00018950","BSTAR":"0.00001876900000"}];
